GOMX-1                  
1 39430U 13066Q   26166.55172280  .00001990  00000+0  30239-3 0  9994
2 39430  97.6479   7.1177 0130155  82.7407 278.8574 14.69456472669672
CUBEBUG-2 (LO-74)       
1 39440U 13066AA  26166.38852800  .00003783  00000+0  35100-3 0  9993
2 39440  97.8905 115.3590 0058509  34.8517 325.6511 14.93747885676726
NEE-02 KRYSAOR          
1 39441U 13066AB  26166.52650132  .00002097  00000+0  23305-3 0  9995
2 39441  97.8894 105.7531 0067692  75.5305 285.3408 14.86612129675957
FUNCUBE-1 (AO-73)       
1 39444U 13066AE  26166.46559247  .00005832  00000+0  36309-3 0  9994
2 39444  97.8272 137.8755 0035505 207.0229 152.9152 15.09471681679400
UWE-3                   
1 39446U 13066AG  26166.41095872  .00003615  00000+0  31229-3 0  9993
2 39446  97.8693 122.4726 0047855 327.0614  32.7628 14.97011844677317
SMDC ONE 2.4            
1 39469U 13072H   26166.35797396  .00008009  00000+0  31045-3 0  9996
2 39469 120.4929 345.0220 0145093  17.0832 343.5059 15.18151408117551
COSMOS 2488 (RODNIK-S 7)
1 39483U 13076A   26166.50840178  .00000084  00000+0  53371-3 0  9991
2 39483  82.4823 169.7408 0020851  98.7175 261.6267 12.42906098565685
COSMOS 2489 (RODNIK-S 8)
1 39484U 13076B   26166.48356705  .00000041  00000+0  22008-3 0  9993
2 39484  82.4860 171.1343 0022673  98.7385 261.6263 12.42879702565732
COSMOS 2490 (RODNIK-S 9)
1 39485U 13076C   26166.45545380  .00000070  00000+0  43347-3 0  9991
2 39485  82.4806 169.2200 0022707 113.7200 246.6265 12.42878461565663
KAZEOSAT 1              
1 39731U 14024A   26166.49523175  .00000211  00000+0  77294-4 0  9997
2 39731  98.3213 238.9845 0001386  73.8572 286.2771 14.42079689638314
COSMOS 2496 (RODNIK-S *)
1 39761U 14028A   26166.49347965  .00000001  00000+0 -68364-4 0  9991
2 39761  82.4448 109.7919 0021339  82.3373 278.0129 12.42878439547304
COSMOS 2497 (RODNIK-S *)
1 39762U 14028B   26166.46878226 -.00000028  00000+0 -27471-3 0  9991
2 39762  82.4495 111.4964 0021886  77.6601 282.6927 12.42893989547309
COSMOS 2498 (RODNIK-S *)
1 39763U 14028C   26166.52699370 -.00000021  00000+0 -22239-3 0  9990
2 39763  82.4456 109.9478 0022615  77.1630 283.1974 12.42979996547342
HODOYOSHI-4             
1 40011U 14033B   26166.48754743  .00001348  00000+0  15148-3 0  9997
2 40011  97.5448 351.3923 0022554 314.4866  45.4507 14.88127395648552
UNISAT-6                
1 40012U 14033C   26166.38519403  .00002497  00000+0  27116-3 0  9993
2 40012  97.7874 319.1286 0046291  75.0953 285.5383 14.88238232645899
DEIMOS-2                
1 40013U 14033D   26166.50843972  .00000707  00000+0  71957-4 0  9994
2 40013  97.5835  41.0565 0001524  48.1408 311.9942 14.93719234637474
BUGSAT-1 (TITA)         
1 40014U 14033E   26166.51770110  .00005802  00000+0  30678-3 0  9994
2 40014  98.0436 258.9681 0027819 184.1364 175.9641 15.15573621655582
SAUDISAT 4              
1 40016U 14033G   26166.36048748  .00000572  00000+0  81850-4 0  9992
2 40016  97.7580 312.5583 0046196  79.7594 280.8823 14.79542509645803
APRIZESAT 9             
1 40018U 14033J   26166.37499560  .00000582  00000+0  92962-4 0  9994
2 40018  97.9058 299.6179 0065550 205.0413 154.7612 14.74212203643298
BRITE-CA1 (TORONTO)     
1 40020U 14033L   26166.33917075  .00000597  00000+0  97618-4 0  9998
2 40020  97.9736 295.3012 0077245 283.0419  76.2174 14.72674284641949
DUCHIFAT-1              
1 40021U 14033M   26166.42257014  .00087303  00000+0  90897-3 0  9990
2 40021  98.0462 225.3358 0003280 119.3803 240.7782 15.64281009655477
NANOSATC-BR1            
1 40024U 14033Q   26165.59181314  .00015703  00000+0  52030-3 0  9991
2 40024  98.0719 197.7493 0004179 169.8700 190.2624 15.31384789653588
