OBJECT_NAME,OBJECT_ID,EPOCH,MEAN_MOTION,ECCENTRICITY,INCLINATION,RA_OF_ASC_NODE,ARG_OF_PERICENTER,MEAN_ANOMALY,EPHEMERIS_TYPE,CLASSIFICATION_TYPE,NORAD_CAT_ID,ELEMENT_SET_NO,REV_AT_EPOCH,BSTAR,MEAN_MOTION_DOT,MEAN_MOTION_DDOT
GOMX-1,2013-066Q,2026-06-15T13:14:28.849920,14.69456472,.0130155,97.6479,7.1177,82.7407,278.8574,0,U,39430,999,66967,.30239E-3,.199E-4,0
CUBEBUG-2 (LO-74),2013-066AA,2026-06-15T09:19:28.819200,14.93747885,.0058509,97.8905,115.3590,34.8517,325.6511,0,U,39440,999,67672,.351E-3,.3783E-4,0
NEE-02 KRYSAOR,2013-066AB,2026-06-15T12:38:09.714048,14.86612129,.0067692,97.8894,105.7531,75.5305,285.3408,0,U,39441,999,67595,.23305E-3,.2097E-4,0
FUNCUBE-1 (AO-73),2013-066AE,2026-06-15T11:10:27.189408,15.09471681,.0035505,97.8272,137.8755,207.0229,152.9152,0,U,39444,999,67940,.36309E-3,.5832E-4,0
UWE-3,2013-066AG,2026-06-15T09:51:46.833408,14.97011844,.0047855,97.8693,122.4726,327.0614,32.7628,0,U,39446,999,67731,.31229E-3,.3615E-4,0
SMDC ONE 2.4,2013-072H,2026-06-15T08:35:28.950144,15.18151408,.0145093,120.4929,345.0220,17.0832,343.5059,0,U,39469,999,11755,.31045E-3,.8009E-4,0
COSMOS 2488 (RODNIK-S 7),2013-076A,2026-06-15T12:12:05.913792,12.42906098,.0020851,82.4823,169.7408,98.7175,261.6267,0,U,39483,999,56568,.53371E-3,.84E-6,0
COSMOS 2489 (RODNIK-S 8),2013-076B,2026-06-15T11:36:20.193120,12.42879702,.0022673,82.4860,171.1343,98.7385,261.6263,0,U,39484,999,56573,.22008E-3,.41E-6,0
COSMOS 2490 (RODNIK-S 9),2013-076C,2026-06-15T10:55:51.208320,12.42878461,.0022707,82.4806,169.2200,113.7200,246.6265,0,U,39485,999,56566,.43347E-3,.7E-6,0
KAZEOSAT 1,2014-024A,2026-06-15T11:53:08.023200,14.42079689,.0001386,98.3213,238.9845,73.8572,286.2771,0,U,39731,999,63831,.77294E-4,.211E-5,0
COSMOS 2496 (RODNIK-S 10),2014-028A,2026-06-15T11:50:36.641760,12.42878439,.0021339,82.4448,109.7919,82.3373,278.0129,0,U,39761,999,54730,-.68364E-4,.1E-7,0
COSMOS 2497 (RODNIK-S 11),2014-028B,2026-06-15T11:15:02.787264,12.42893989,.0021886,82.4495,111.4964,77.6601,282.6927,0,U,39762,999,54730,-.27471E-3,-.28E-6,0
COSMOS 2498 (RODNIK-S 12),2014-028C,2026-06-15T12:38:52.255680,12.42979996,.0022615,82.4456,109.9478,77.1630,283.1974,0,U,39763,999,54734,-.22239E-3,-.21E-6,0
HODOYOSHI-4,2014-033B,2026-06-15T11:42:04.097952,14.88127395,.0022554,97.5448,351.3923,314.4866,45.4507,0,U,40011,999,64855,.15148E-3,.1348E-4,0
UNISAT-6,2014-033C,2026-06-15T09:14:40.764192,14.88238232,.0046291,97.7874,319.1286,75.0953,285.5383,0,U,40012,999,64589,.27116E-3,.2497E-4,0
DEIMOS-2,2014-033D,2026-06-15T12:12:09.191808,14.93719234,.0001524,97.5835,41.0565,48.1408,311.9942,0,U,40013,999,63747,.71957E-4,.707E-5,0
BUGSAT-1 (TITA),2014-033E,2026-06-15T12:25:29.375040,15.15573621,.0027819,98.0436,258.9681,184.1364,175.9641,0,U,40014,999,65558,.30678E-3,.5802E-4,0
SAUDISAT 4,2014-033G,2026-06-15T08:39:06.118272,14.79542509,.0046196,97.7580,312.5583,79.7594,280.8823,0,U,40016,999,64580,.8185E-4,.572E-5,0
APRIZESAT 9,2014-033J,2026-06-15T08:59:59.619840,14.74212203,.006555,97.9058,299.6179,205.0413,154.7612,0,U,40018,999,64329,.92962E-4,.582E-5,0
BRITE-CA1 (TORONTO),2014-033L,2026-06-15T08:08:24.352800,14.72674284,.0077245,97.9736,295.3012,283.0419,76.2174,0,U,40020,999,64194,.97618E-4,.597E-5,0
DUCHIFAT-1,2014-033M,2026-06-15T10:08:30.060096,15.64281009,.000328,98.0462,225.3358,119.3803,240.7782,0,U,40021,999,65547,.90897E-3,.87303E-3,0
NANOSATC-BR1,2014-033Q,2026-06-14T14:12:12.655296,15.31384789,.00041799,98.0719,197.7493,169.8700,190.2624,0,U,40024,999,65358,.52029887E-3,.15703E-3,0
